[{"OBJECT_NAME":"COSMOS 2251 DEB","OBJECT_ID":"1993-036AJ","EPOCH":"2026-03-06T07:14:24.230976","MEAN_MOTION":14.28051247,"ECCENTRICITY":0.00770302,"INCLINATION":73.9836,"RA_OF_ASC_NODE":357.9999,"ARG_OF_PERICENTER":130.6168,"MEAN_ANOMALY":32.48,"EPHEMERIS_TYPE":0,"CLASSIFICATION_TYPE":"U","NORAD_CAT_ID":33793,"ELEMENT_SET_NO":999,"REV_AT_EPOCH":88399,"BSTAR":0.00077206405,"MEAN_MOTION_DOT":1.954e-5,"MEAN_MOTION_DDOT":0},{"OBJECT_NAME":"COSMOS 2251 DEB","OBJECT_ID":"1993-036AL","EPOCH":"2026-03-06T06:16:53.179968","MEAN_MOTION":15.10148931,"ECCENTRICITY":0.00304695,"INCLINATION":74.0292,"RA_OF_ASC_NODE":264.8862,"ARG_OF_PERICENTER":324.5653,"MEAN_ANOMALY":151.6862,"EPHEMERIS_TYPE":0,"CLASSIFICATION_TYPE":"U","NORAD_CAT_ID":33795,"ELEMENT_SET_NO":999,"REV_AT_EPOCH":91280,"BSTAR":0.0014272866,"MEAN_MOTION_DOT":0.00023582,"MEAN_MOTION_DDOT":0},{"OBJECT_NAME":"COSMOS 2251 DEB","OBJECT_ID":"1993-036AN","EPOCH":"2026-03-06T04:29:26.272032","MEAN_MOTION":14.58287238,"ECCENTRICITY":0.00626872,"INCLINATION":74.0449,"RA_OF_ASC_NODE":236.3062,"ARG_OF_PERICENTER":302.0878,"MEAN_ANOMALY":172.8804,"EPHEMERIS_TYPE":0,"CLASSIFICATION_TYPE":"U","NORAD_CAT_ID":33797,"ELEMENT_SET_NO":999,"REV_AT_EPOCH":90201,"BSTAR":0.00049687459,"MEAN_MOTION_DOT":2.329e-5,"MEAN_MOTION_DDOT":0},{"OBJECT_NAME":"COSMOS 2251 DEB","OBJECT_ID":"1993-036AP","EPOCH":"2026-03-06T05:30:11.685888","MEAN_MOTION":14.44729021,"ECCENTRICITY":0.00900594,"INCLINATION":74.032,"RA_OF_ASC_NODE":340.3813,"ARG_OF_PERICENTER":81.0846,"MEAN_ANOMALY":72.2342,"EPHEMERIS_TYPE":0,"CLASSIFICATION_TYPE":"U","NORAD_CAT_ID":33798,"ELEMENT_SET_NO":999,"REV_AT_EPOCH":89799,"BSTAR":0.00020803032,"MEAN_MOTION_DOT":7.31e-6,"MEAN_MOTION_DDOT":0},{"OBJECT_NAME":"COSMOS 2251 DEB","OBJECT_ID":"1993-036AQ","EPOCH":"2026-03-06T07:45:39.777984","MEAN_MOTION":14.817845,"ECCENTRICITY":0.00230319,"INCLINATION":74.0297,"RA_OF_ASC_NODE":276.9416,"ARG_OF_PERICENTER":322.8748,"MEAN_ANOMALY":214.3306,"EPHEMERIS_TYPE":0,"CLASSIFICATION_TYPE":"U","NORAD_CAT_ID":33799,"ELEMENT_SET_NO":999,"REV_AT_EPOCH":90048,"BSTAR":0.0017458831,"MEAN_MOTION_DOT":0.0001384,"MEAN_MOTION_DDOT":0},{"OBJECT_NAME":"COSMOS 2251 DEB","OBJECT_ID":"1993-036AW","EPOCH":"2026-03-06T06:12:54.304704","MEAN_MOTION":14.5808409,"ECCENTRICITY":0.00621554,"INCLINATION":74.0312,"RA_OF_ASC_NODE":152.4241,"ARG_OF_PERICENTER":318.3006,"MEAN_ANOMALY":41.3428,"EPHEMERIS_TYPE":0,"CLASSIFICATION_TYPE":"U","NORAD_CAT_ID":33805,"ELEMENT_SET_NO":999,"REV_AT_EPOCH":90444,"BSTAR":0.00031144054,"MEAN_MOTION_DOT":1.441e-5,"MEAN_MOTION_DDOT":0},{"OBJECT_NAME":"COSMOS 2251 DEB","OBJECT_ID":"1993-036BC","EPOCH":"2026-03-06T07:16:36.428160","MEAN_MOTION":15.09112296,"ECCENTRICITY":0.002819,"INCLINATION":73.8343,"RA_OF_ASC_NODE":128.8865,"ARG_OF_PERICENTER":204.8949,"MEAN_ANOMALY":225.8277,"EPHEMERIS_TYPE":0,"CLASSIFICATION_TYPE":"U","NORAD_CAT_ID":33811,"ELEMENT_SET_NO":999,"REV_AT_EPOCH":91277,"BSTAR":0.0015714565,"MEAN_MOTION_DOT":0.00025203,"MEAN_MOTION_DDOT":0},{"OBJECT_NAME":"COSMOS 2251 DEB","OBJECT_ID":"1993-036BH","EPOCH":"2026-03-06T04:35:57.748704","MEAN_MOTION":13.81945426,"ECCENTRICITY":0.0265469,"INCLINATION":73.8972,"RA_OF_ASC_NODE":323.9343,"ARG_OF_PERICENTER":320.9127,"MEAN_ANOMALY":37.3072,"EPHEMERIS_TYPE":0,"CLASSIFICATION_TYPE":"U","NORAD_CAT_ID":33816,"ELEMENT_SET_NO":999,"REV_AT_EPOCH":85826,"BSTAR":0.00073041752,"MEAN_MOTION_DOT":1.0e-5,"MEAN_MOTION_DDOT":0},{"OBJECT_NAME":"COSMOS 2251 DEB","OBJECT_ID":"1993-036BK","EPOCH":"2026-03-06T05:12:31.785120","MEAN_MOTION":15.21907165,"ECCENTRICITY":0.00171647,"INCLINATION":74.0816,"RA_OF_ASC_NODE":352.5783,"ARG_OF_PERICENTER":295.8265,"MEAN_ANOMALY":64.1162,"EPHEMERIS_TYPE":0,"CLASSIFICATION_TYPE":"U","NORAD_CAT_ID":33818,"ELEMENT_SET_NO":999,"REV_AT_EPOCH":91128,"BSTAR":0.0030227378,"MEAN_MOTION_DOT":0.00069747,"MEAN_MOTION_DDOT":0},{"OBJECT_NAME":"COSMOS 2251 DEB","OBJECT_ID":"1993-036BL","EPOCH":"2026-03-06T02:20:36.212640","MEAN_MOTION":14.32550992,"ECCENTRICITY":0.0092104,"INCLINATION":74.1787,"RA_OF_ASC_NODE":59.0206,"ARG_OF_PERICENTER":256.9669,"MEAN_ANOMALY":171.1885,"EPHEMERIS_TYPE":0,"CLASSIFICATION_TYPE":"U","NORAD_CAT_ID":33819,"ELEMENT_SET_NO":999,"REV_AT_EPOCH":88689,"BSTAR":0.00080188658,"MEAN_MOTION_DOT":2.255e-5,"MEAN_MOTION_DDOT":0},{"OBJECT_NAME":"COSMOS 2251 DEB","OBJECT_ID":"1993-036BN","EPOCH":"2026-03-06T03:41:27.888864","MEAN_MOTION":15.31531656,"ECCENTRICITY":0.00432193,"INCLINATION":74.03,"RA_OF_ASC_NODE":325.6876,"ARG_OF_PERICENTER":331.9755,"MEAN_ANOMALY":27.9121,"EPHEMERIS_TYPE":0,"CLASSIFICATION_TYPE":"U","NORAD_CAT_ID":33821,"ELEMENT_SET_NO":999,"REV_AT_EPOCH":76275,"BSTAR":0.0011905973,"MEAN_MOTION_DOT":0.00037469,"MEAN_MOTION_DDOT":0},{"OBJECT_NAME":"COSMOS 2251 DEB","OBJECT_ID":"1993-036BP","EPOCH":"2026-03-06T01:08:36.475296","MEAN_MOTION":14.13660531,"ECCENTRICITY":0.01471906,"INCLINATION":74.0702,"RA_OF_ASC_NODE":46.5336,"ARG_OF_PERICENTER":72.9001,"MEAN_ANOMALY":356.9309,"EPHEMERIS_TYPE":0,"CLASSIFICATION_TYPE":"U","NORAD_CAT_ID":33822,"ELEMENT_SET_NO":999,"REV_AT_EPOCH":87231,"BSTAR":0.0014642321,"MEAN_MOTION_DOT":3.043e-5,"MEAN_MOTION_DDOT":0},{"OBJECT_NAME":"COSMOS 2251 DEB","OBJECT_ID":"1993-036BQ","EPOCH":"2026-03-06T07:14:25.366272","MEAN_MOTION":13.99181396,"ECCENTRICITY":0.02067683,"INCLINATION":73.8124,"RA_OF_ASC_NODE":2.8518,"ARG_OF_PERICENTER":113.9608,"MEAN_ANOMALY":10.6456,"EPHEMERIS_TYPE":0,"CLASSIFICATION_TYPE":"U","NORAD_CAT_ID":33823,"ELEMENT_SET_NO":999,"REV_AT_EPOCH":86778,"BSTAR":0.00089444309,"MEAN_MOTION_DOT":1.534e-5,"MEAN_MOTION_DDOT":0},{"OBJECT_NAME":"COSMOS 2251 DEB","OBJECT_ID":"1993-036BS","EPOCH":"2026-03-06T04:43:30.228960","MEAN_MOTION":14.71414625,"ECCENTRICITY":0.00801168,"INCLINATION":73.9823,"RA_OF_ASC_NODE":225.2935,"ARG_OF_PERICENTER":173.5785,"MEAN_ANOMALY":4.9087,"EPHEMERIS_TYPE":0,"CLASSIFICATION_TYPE":"U","NORAD_CAT_ID":33825,"ELEMENT_SET_NO":999,"REV_AT_EPOCH":90106,"BSTAR":0.0020044646,"MEAN_MOTION_DOT":0.00013046,"MEAN_MOTION_DDOT":0},{"OBJECT_NAME":"COSMOS 2251 DEB","OBJECT_ID":"1993-036BT","EPOCH":"2026-03-05T22:53:05.200224","MEAN_MOTION":14.52841951,"ECCENTRICITY":0.00842706,"INCLINATION":74.062,"RA_OF_ASC_NODE":253.3163,"ARG_OF_PERICENTER":277.4347,"MEAN_ANOMALY":199.0584,"EPHEMERIS_TYPE":0,"CLASSIFICATION_TYPE":"U","NORAD_CAT_ID":33826,"ELEMENT_SET_NO":999,"REV_AT_EPOCH":88977,"BSTAR":0.0019846726,"MEAN_MOTION_DOT":8.533e-5,"MEAN_MOTION_DDOT":0},{"OBJECT_NAME":"COSMOS 2251 DEB","OBJECT_ID":"1993-036BV","EPOCH":"2026-03-06T03:03:40.198176","MEAN_MOTION":14.44638132,"ECCENTRICITY":0.00272058,"INCLINATION":74.0442,"RA_OF_ASC_NODE":82.9889,"ARG_OF_PERICENTER":141.0453,"MEAN_ANOMALY":281.5522,"EPHEMERIS_TYPE":0,"CLASSIFICATION_TYPE":"U","NORAD_CAT_ID":33828,"ELEMENT_SET_NO":999,"REV_AT_EPOCH":89517,"BSTAR":0.00042434729,"MEAN_MOTION_DOT":1.45e-5,"MEAN_MOTION_DDOT":0}]
