COSMOS 2251 DEB         
1 33793U 93036AJ  26065.30166934  .00001954  00000+0  77206-3 0  9990
2 33793  73.9836 357.9999 0077030 130.6168  32.4800 14.28051247883994
COSMOS 2251 DEB         
1 33795U 93036AL  26065.26172662  .00023582  00000+0  14273-2 0  9997
2 33795  74.0292 264.8862 0030469 324.5653 151.6862 15.10148931912801
COSMOS 2251 DEB         
1 33797U 93036AN  26065.18710963  .00002329  00000+0  49687-3 0  9996
2 33797  74.0449 236.3062 0062687 302.0878 172.8804 14.58287238902018
COSMOS 2251 DEB         
1 33798U 93036AP  26065.22930192  .00000731  00000+0  20803-3 0  9994
2 33798  74.0320 340.3813 0090059  81.0846  72.2342 14.44729021897996
COSMOS 2251 DEB         
1 33799U 93036AQ  26065.32337706  .00013840  00000+0  17459-2 0  9995
2 33799  74.0297 276.9416 0023031 322.8748 214.3306 14.81784500900488
COSMOS 2251 DEB         
1 33805U 93036AW  26065.25896186  .00001441  00000+0  31144-3 0  9999
2 33805  74.0312 152.4241 0062155 318.3006  41.3428 14.58084090904449
COSMOS 2251 DEB         
1 33811U 93036BC  26065.30319940  .00025203  00000+0  15715-2 0  9997
2 33811  73.8343 128.8865 0028190 204.8949 225.8277 15.09112296912775
COSMOS 2251 DEB         
1 33816U 93036BH  26065.19164061  .00001000  00000+0  73042-3 0  9998
2 33816  73.8972 323.9343 0265469 320.9127  37.3072 13.81945426858266
COSMOS 2251 DEB         
1 33818U 93036BK  26065.21703455  .00069747  00000+0  30227-2 0  9998
2 33818  74.0816 352.5783 0017164 295.8265  64.1162 15.21907165911288
COSMOS 2251 DEB         
1 33819U 93036BL  26065.09764135  .00002255  00000+0  80189-3 0  9991
2 33819  74.1787  59.0206 0092104 256.9669 171.1885 14.32550992886891
COSMOS 2251 DEB         
1 33821U 93036BN  26065.15379501  .00037469  00000+0  11906-2 0  9995
2 33821  74.0300 325.6876 0043219 331.9755  27.9121 15.31531656762757
COSMOS 2251 DEB         
1 33822U 93036BP  26065.04764439  .00003043  00000+0  14642-2 0  9993
2 33822  74.0702  46.5336 0147190  72.9001 356.9309 14.13660531872314
COSMOS 2251 DEB         
1 33823U 93036BQ  26065.30168248  .00001534  00000+0  89444-3 0  9995
2 33823  73.8124   2.8518 0206768 113.9608  10.6456 13.99181396867785
COSMOS 2251 DEB         
1 33825U 93036BS  26065.19687765  .00013046  00000+0  20045-2 0  9996
2 33825  73.9823 225.2935 0080116 173.5785   4.9087 14.71414625901064
COSMOS 2251 DEB         
1 33826U 93036BT  26064.95353241  .00008533  00000+0  19847-2 0  9992
2 33826  74.0620 253.3163 0084270 277.4347 199.0584 14.52841951889776
COSMOS 2251 DEB         
1 33828U 93036BV  26065.12754859  .00001450  00000+0  42435-3 0  9995
2 33828  74.0442  82.9889 0027205 141.0453 281.5522 14.44638132895176
